NORAD_CAT_ID,OBJECT_NAME,OBJECT_TYPE,EPOCH,MEAN_MOTION,ECCENTRICITY,INCLINATION,RA_OF_ASC_NODE,ARG_OF_PERICENTER,MEAN_ANOMALY,BSTAR,MEAN_MOTION_DOT,MEAN_MOTION_DDOT,TLE_LINE0,TLE_LINE1,TLE_LINE2,SEMIMAJOR_AXIS,PERIOD,APOGEE,PERIGEE,DECAYED
51873.0,STARLINK-3582,PAYLOAD,2023-12-06 12:16:41,15.08852399,0.0001545,53.2164,109.008,109.8038,250.3121,0.00010417,1.371e-05,0.0,0 STARLINK-3582,1 51873U 22022X   23340.51159197  .00001371  00000-0  10417-3 0  9990,2 51873  53.2164 109.0080 0001545 109.8038 250.3121 15.08852399 98695,6917.842,95.437,540.776,538.639,0.0
51873.0,STARLINK-3582,PAYLOAD,2023-12-06 18:38:14,15.0885172,0.0001491,53.2166,107.8197,98.9451,261.171,7.4551e-05,8.99e-06,0.0,0 STARLINK-3582,1 51873U 22022X   23340.77655103  .00000899  00000-0  74551-4 0  9990,2 51873  53.2166 107.8197 0001491  98.9451 261.1710 15.08851720 98735,6917.845,95.437,540.741,538.678,0.0
51873.0,STARLINK-3582,PAYLOAD,2023-12-07 12:07:28,15.08848537,0.0001892,53.216,104.5454,117.0744,243.0442,-9.5161e-05,-1.803e-05,0.0,0 STARLINK-3582,1 51873U 22022X   23341.50519384 -.00001803  00000-0 -95161-4 0  9990,2 51873  53.2160 104.5454 0001892 117.0744 243.0442 15.08848537 98847,6917.854,95.437,541.028,538.41,0.0
51873.0,STARLINK-3582,PAYLOAD,2023-12-08 13:33:38,15.08862572,0.0001138,53.2166,99.7911,101.1821,258.9299,-0.0002963,-5.003e-05,0.0,0 STARLINK-3582,1 51873U 22022X   23342.56503097 -.00005003  00000-0 -29630-3 0  9994,2 51873  53.2166  99.7911 0001138 101.1821 258.9299 15.08862572 99008,6917.811,95.436,540.464,538.889,0.0
51873.0,STARLINK-3582,PAYLOAD,2023-12-08 18:19:50,15.08751177,0.0001831,53.2165,98.8964,97.5076,262.6124,0.0011564,0.00018119,0.0,0 STARLINK-3582,1 51873U 22022X   23342.76377756  .00018119  00000-0  11564-2 0  9993,2 51873  53.2165  98.8964 0001831  97.5076 262.6124 15.08751177 99035,6918.152,95.443,541.284,538.75,0.0
51873.0,STARLINK-3582,PAYLOAD,2023-12-09 11:49:03,15.0883386,0.0001176,53.2171,95.6264,84.7757,275.3369,1.8591e-05,8e-08,0.0,0 STARLINK-3582,1 51873U 22022X   23343.49240031  .00000008  00000-0  18591-4 0  9996,2 51873  53.2171  95.6264 0001176  84.7757 275.3369 15.08833860 99140,6917.899,95.438,540.578,538.951,0.0
51873.0,STARLINK-3582,PAYLOAD,2023-12-09 13:24:26,15.08835563,0.0001198,53.2166,95.3288,86.4327,273.6802,3.0997e-05,2.05e-06,0.0,0 STARLINK-3582,1 51873U 22022X   23343.55863890  .00000205  00000-0  30997-4 0  9990,2 51873  53.2166  95.3288 0001198  86.4327 273.6802 15.08835563 99159,6917.894,95.438,540.588,538.93,0.0
51873.0,STARLINK-3582,PAYLOAD,2023-12-09 16:35:12,15.08838389,0.0001233,53.217,94.7336,83.3283,276.7849,5.0359e-05,5.14e-06,0.0,0 STARLINK-3582,1 51873U 22022X   23343.69111692  .00000514  00000-0  50359-4 0  9998,2 51873  53.2170  94.7336 0001233  83.3283 276.7849 15.08838389 99174,6917.885,95.438,540.603,538.897,0.0
51873.0,STARLINK-3582,PAYLOAD,2023-12-10 14:50:36,15.08838213,0.0001315,53.2177,90.5705,73.6153,286.4984,5.5287e-05,5.92e-06,0.0,0 STARLINK-3582,1 51873U 22022X   23344.61847898  .00000592  00000-0  55287-4 0  9996,2 51873  53.2177  90.5705 0001315  73.6153 286.4984 15.08838213 99314,6917.886,95.438,540.661,538.841,0.0
51873.0,STARLINK-3582,PAYLOAD,2023-12-11 11:30:37,15.08840068,0.0001296,53.2179,86.7076,75.0118,285.1017,2.1475e-05,5.4e-07,0.0,0 STARLINK-3582,1 51873U 22022X   23345.47960034  .00000054  00000-0  21475-4 0  9994,2 51873  53.2179  86.7076 0001296  75.0118 285.1017 15.08840068 99447,6917.88,95.438,540.642,538.849,0.0
51873.0,STARLINK-3582,PAYLOAD,2023-12-11 14:41:23,15.08842244,0.0001397,53.2181,86.1142,70.9822,289.1322,4.3476e-05,4.04e-06,0.0,0 STARLINK-3582,1 51873U 22022X   23345.61207887  .00000404  00000-0  43476-4 0  9994,2 51873  53.2181  86.1142 0001397  70.9822 289.1322 15.08842244 99469,6917.874,95.437,540.705,538.772,0.0
51873.0,STARLINK-3582,PAYLOAD,2023-12-12 11:21:24,15.08840552,0.0001631,53.2186,82.2482,62.7132,297.4026,4.2792e-05,3.93e-06,0.0,0 STARLINK-3582,1 51873U 22022X   23346.47320027  .00000393  00000-0  42792-4 0  9998,2 51873  53.2186  82.2482 0001631  62.7132 297.4026 15.08840552 99599,6917.879,95.438,540.872,538.615,0.0
51873.0,STARLINK-3582,PAYLOAD,2023-12-13 11:12:11,15.08844498,0.000131,53.2177,77.7906,78.055,282.0589,4.3242e-05,4e-06,0.0,0 STARLINK-3582,1 51873U 22022X   23347.46679515  .00000400  00000-0  43242-4 0  9997,2 51873  53.2177  77.7906 0001310  78.0550 282.0589 15.08844498 99741,6917.867,95.437,540.638,538.825,0.0
51873.0,STARLINK-3582,PAYLOAD,2023-12-13 12:47:34,15.08846023,0.0001368,53.2179,77.4905,76.518,283.5964,5.5311e-05,5.93e-06,0.0,0 STARLINK-3582,1 51873U 22022X   23347.53303347  .00000593  00000-0  55311-4 0  9995,2 51873  53.2179  77.4905 0001368  76.5180 283.5964 15.08846023 99754,6917.862,95.437,540.673,538.781,0.0
51873.0,STARLINK-3582,PAYLOAD,2023-12-14 11:02:58,15.08839423,0.0001351,53.2177,73.325,88.5906,271.5241,2.5933e-06,-2.47e-06,0.0,0 STARLINK-3582,1 51873U 22022X   23348.46039764 -.00000247  00000-0  25933-5 0  9992,2 51873  53.2177  73.3250 0001351  88.5906 271.5241 15.08839423 99897,6917.882,95.438,540.682,538.813,0.0
51873.0,STARLINK-3582,PAYLOAD,2023-12-14 12:38:21,15.08841744,0.0001362,53.2176,73.0276,88.1813,271.9335,2.0028e-05,3.1e-07,0.0,0 STARLINK-3582,1 51873U 22022X   23348.52663567  .00000031  00000-0  20028-4 0  9992,2 51873  53.2176  73.0276 0001362  88.1813 271.9335 15.08841744 99905,6917.875,95.437,540.682,538.798,0.0
51873.0,STARLINK-3582,PAYLOAD,2023-12-15 12:29:08,15.08838307,0.0001401,53.2177,68.5678,85.5971,274.5182,1.2234e-07,-2.86e-06,0.0,0 STARLINK-3582,1 51873U 22022X   23349.52023934 -.00000286  00000-0  12234-6 0  9996,2 51873  53.2177  68.5678 0001401  85.5971 274.5182 15.08838307100050,6917.886,95.438,540.72,538.781,0.0
51873.0,STARLINK-3582,PAYLOAD,2023-12-16 12:19:56,15.08833442,0.0001406,53.218,64.1067,92.272,267.8434,4.9049e-05,4.93e-06,0.0,0 STARLINK-3582,1 51873U 22022X   23350.51384402  .00000493  00000-0  49049-4 0  9998,2 51873  53.2180  64.1067 0001406  92.2720 267.8434 15.08833442100207,6917.9,95.438,540.738,538.793,0.0
51873.0,STARLINK-3582,PAYLOAD,2023-12-17 12:10:43,15.08837432,0.0001483,53.2182,59.6472,84.5942,275.5219,4.2617e-05,3.9e-06,0.0,0 STARLINK-3582,1 51873U 22022X   23351.50744717  .00000390  00000-0  42617-4 0  9997,2 51873  53.2182  59.6472 0001483  84.5942 275.5219 15.08837432100359,6917.888,95.438,540.779,538.727,0.0
51873.0,STARLINK-3582,PAYLOAD,2023-12-18 12:01:29,15.08829921,0.0001688,53.2187,55.1877,80.9882,279.1301,0.00047482,7.275e-05,0.0,0 STARLINK-3582,1 51873U 22022X   23352.50103803  .00007275  00000-0  47482-3 0  9996,2 51873  53.2187  55.1877 0001688  80.9882 279.1301 15.08829921100507,6917.911,95.438,540.944,538.608,0.0
51873.0,STARLINK-3582,PAYLOAD,2023-12-19 10:16:54,15.08841567,0.0001511,53.2184,51.026,85.9325,274.184,1.4638e-05,-5.5e-07,0.0,0 STARLINK-3582,1 51873U 22022X   23353.42840606 -.00000055  00000-0  14638-4 0  9995,2 51873  53.2184  51.0260 0001511  85.9325 274.1840 15.08841567100645,6917.876,95.437,540.786,538.695,0.0
51873.0,STARLINK-3582,PAYLOAD,2023-12-20 10:07:41,15.08840382,0.0001712,53.2185,46.5674,72.8297,287.2883,-0.00011536,-2.124e-05,0.0,0 STARLINK-3582,1 51873U 22022X   23354.42201342 -.00002124  00000-0 -11536-3 0  9997,2 51873  53.2185  46.5674 0001712  72.8297 287.2883 15.08840382100792,6917.879,95.438,540.929,538.56,0.0
51873.0,STARLINK-3582,PAYLOAD,2023-12-21 09:58:27,15.08848534,0.0001586,53.2188,42.0994,86.6881,273.4293,0.00015219,2.135e-05,0.0,0 STARLINK-3582,1 51873U 22022X   23355.41560053  .00002135  00000-0  15219-3 0  9996,2 51873  53.2188  42.0994 0001586  86.6881 273.4293 15.08848534100948,6917.854,95.437,540.816,538.622,0.0
51873.0,STARLINK-3582,PAYLOAD,2023-12-22 09:49:15,15.08841048,0.0001706,53.2187,37.642,121.2289,238.887,5.5923e-05,6.02e-06,0.0,0 STARLINK-3582,1 51873U 22022X   23356.40920887  .00000602  00000-0  55923-4 0  9995,2 51873  53.2187  37.6420 0001706 121.2289 238.8870 15.08841048101099,6917.877,95.437,540.922,538.562,0.0
51873.0,STARLINK-3582,PAYLOAD,2023-12-23 03:18:30,15.08833352,0.0001885,53.2183,34.3732,118.9647,241.1534,-4.1775e-05,-9.53e-06,0.0,0 STARLINK-3582,1 51873U 22022X   23357.13785775 -.00000953  00000-0 -41775-4 0  9992,2 51873  53.2183  34.3732 0001885 118.9647 241.1534 15.08833352101200,6917.901,95.438,541.07,538.462,0.0
51873.0,STARLINK-3582,PAYLOAD,2023-12-23 12:50:48,15.08846465,0.0001426,53.2167,32.5848,86.1211,273.9944,-2.2299e-05,-6.43e-06,0.0,0 STARLINK-3582,1 51873U 22022X   23357.53528907 -.00000643  00000-0 -22299-4 0  9994,2 51873  53.2167  32.5848 0001426  86.1211 273.9944 15.08846465101267,6917.861,95.437,540.712,538.739,0.0
51873.0,STARLINK-3582,PAYLOAD,2023-12-23 22:23:08,15.08837278,0.0001562,53.2169,30.8001,112.0477,248.0682,2.4481e-05,1.02e-06,0.0,0 STARLINK-3582,1 51873U 22022X   23357.93273536  .00000102  00000-0  24481-4 0  9996,2 51873  53.2169  30.8001 0001562 112.0477 248.0682 15.08837278101326,6917.889,95.438,540.834,538.673,0.0
51873.0,STARLINK-3582,PAYLOAD,2023-12-24 12:41:36,15.08841796,0.0001438,53.2173,28.1239,108.9475,251.1673,6.0715e-05,6.79e-06,0.0,0 STARLINK-3582,1 51873U 22022X   23358.52889219  .00000679  00000-0  60715-4 0  9992,2 51873  53.2173  28.1239 0001438 108.9475 251.1673 15.08841796101413,6917.875,95.437,540.735,538.745,0.0
51873.0,STARLINK-3582,PAYLOAD,2023-12-25 10:56:59,15.0884913,0.0001604,53.2191,23.96,97.4593,262.6581,0.00014805,2.07e-05,0.0,0 STARLINK-3582,1 51873U 22022X   23359.45624811  .00002070  00000-0  14805-3 0  9995,2 51873  53.2191  23.9600 0001604  97.4593 262.6581 15.08849130101556,6917.852,95.437,540.827,538.608,0.0
51873.0,STARLINK-3582,PAYLOAD,2023-12-26 10:47:47,15.08841831,0.0001492,53.2189,19.5005,89.5392,270.5771,3.952e-05,3.41e-06,0.0,0 STARLINK-3582,1 51873U 22022X   23360.44985723  .00000341  00000-0  39520-4 0  9999,2 51873  53.2189  19.5005 0001492  89.5392 270.5771 15.08841831101703,6917.875,95.437,540.772,538.708,0.0
